OBJECT_NAME,OBJECT_ID,EPOCH,MEAN_MOTION,ECCENTRICITY,INCLINATION,RA_OF_ASC_NODE,ARG_OF_PERICENTER,MEAN_ANOMALY,EPHEMERIS_TYPE,CLASSIFICATION_TYPE,NORAD_CAT_ID,ELEMENT_SET_NO,REV_AT_EPOCH,BSTAR,MEAN_MOTION_DOT,MEAN_MOTION_DDOT
STARLINK-34833,2025-176W,2026-06-15T23:18:28.064160,15.34466816,.0001305,53.1587,55.0957,73.2307,286.8839,0,U,65218,999,4818,.17656E-2,.59881E-3,0
STARLINK-34960,2025-176X,2026-06-16T09:08:32.354592,15.34398271,.00009181,53.1582,53.3880,80.8868,279.2238,0,U,65219,999,4824,.62013274E-3,.20633E-3,0
STARLINK-34603,2025-176Y,2026-06-16T20:26:11.232960,15.34396489,.0001458,53.1592,50.6420,82.5113,277.6055,0,U,65220,999,4832,.90639E-3,.30368E-3,0
STARLINK-34974,2025-176Z,2026-06-16T20:41:20.219712,15.34399527,.000143,53.1605,50.7015,90.3492,269.7675,0,U,65221,999,4832,.86152E-3,.28843E-3,0
STARLINK-34999,2025-176AA,2026-06-16T09:05:30.639840,15.34404119,.00011791,53.1582,53.3768,84.5902,275.5235,0,U,65222,999,4824,.5979786E-3,.19884E-3,0
STARLINK-34996,2025-176AB,2026-06-16T09:02:28.625280,15.34399413,.0001203,53.1587,53.3606,91.1612,268.9529,0,U,65223,999,4824,.61381006E-3,.20418E-3,0
STARLINK-34975,2025-176AC,2026-06-15T23:09:25.377120,15.34363679,.0001281,53.1605,55.0594,29.8823,330.2253,0,U,65224,999,4818,.85916E-3,.2873E-3,0
STARLINK-34257,2025-176AD,2026-06-15T23:15:25.730784,15.34406794,.0001381,53.1596,55.0803,78.1971,281.9186,0,U,65225,999,4812,.72767E-3,.24294E-3,0
STARLINK-34842,2025-179A,2026-06-16T15:39:34.361856,15.05651915,.0002618,97.3507,209.6135,95.8518,264.3008,0,U,65235,999,4677,.24251E-3,.3444E-4,0
STARLINK-34938,2025-179B,2026-06-16T16:31:23.756160,15.05653122,.0001496,97.3499,209.5639,108.9610,251.1780,0,U,65236,999,4676,.1718E-3,.2423E-4,0
STARLINK-34958,2025-179C,2026-06-16T20:06:43.327008,15.05659269,.00022,97.3504,209.6681,102.3009,257.8465,0,U,65237,999,4688,.29888E-3,.4259E-4,0
STARLINK-34818,2025-179D,2026-06-16T20:50:35.000160,15.05661053,.0001675,97.3500,209.7814,131.3306,228.8066,0,U,65238,999,4647,.39522E-3,.5651E-4,0
STARLINK-34964,2025-179E,2026-06-16T20:18:42.177600,15.05662303,.000232,97.3501,209.6556,114.3996,245.7474,0,U,65239,999,4673,.43477E-3,.6223E-4,0
STARLINK-34953,2025-179F,2026-06-16T16:39:23.241600,15.05662607,.0002168,97.3503,209.5568,130.4579,229.6837,0,U,65240,999,4687,.16129E-3,.2272E-4,0
STARLINK-34969,2025-179G,2026-06-16T16:19:26.238720,15.05656453,.000137,97.3513,209.5754,103.7184,256.4196,0,U,65241,999,4671,.32742E-3,.4671E-4,0
STARLINK-34963,2025-179H,2026-06-16T20:38:39.336000,15.05590605,.0001616,97.3517,209.7958,72.0040,288.1364,0,U,65242,999,4689,-.23681E-2,-.34008E-3,0
STARLINK-34982,2025-179J,2026-06-16T19:58:45.003648,15.05650082,.0003116,97.3491,209.6759,119.6954,240.4584,0,U,65243,999,4689,.4317E-3,.6177E-4,0
STARLINK-34990,2025-179K,2026-06-16T16:11:27.860064,15.05659625,.0001521,97.3502,209.5833,102.6605,257.4792,0,U,65244,999,4677,.36113E-3,.5158E-4,0
STARLINK-34977,2025-179L,2026-06-16T16:35:23.096256,15.05659809,.0002064,97.3500,209.5611,87.4864,272.6600,0,U,65245,999,4668,.23247E-3,.3299E-4,0
STARLINK-34959,2025-179M,2026-06-16T20:22:38.790912,15.05651812,.0001649,97.3482,209.6635,105.4349,254.7061,0,U,65246,999,4674,-.26243E-4,-.436E-5,0
STARLINK-34923,2025-179N,2026-06-16T17:03:17.186112,15.05656725,.0001763,97.3492,209.5320,106.5160,253.6261,0,U,65247,999,4676,.3133E-3,.4467E-4,0
STARLINK-34962,2025-179P,2026-06-16T16:23:27.121920,15.05657134,.0001501,97.3504,209.5719,140.8145,219.3191,0,U,65248,999,4672,.24366E-3,.3461E-4,0
STARLINK-34925,2025-179Q,2026-06-16T20:42:36.912672,15.05662581,.000152,97.3505,209.7906,90.7913,269.3488,0,U,65249,999,4674,.34774E-3,.4965E-4,0
STARLINK-34973,2025-179R,2026-06-16T20:30:39.364128,15.05659211,.000202,97.3514,209.8029,91.9897,268.1562,0,U,65250,999,4673,.16892E-3,.2381E-4,0
STARLINK-34989,2025-179S,2026-06-16T20:34:38.394912,15.05656470,.0001008,97.3521,209.7995,115.1930,244.9402,0,U,65251,999,4691,.24073E-3,.3418E-4,0
STARLINK-34961,2025-179T,2026-06-16T16:15:26.872704,15.05656555,.000168,97.3514,209.5796,119.5492,240.5903,0,U,65252,999,4672,.16019E-3,.2255E-4,0
STARLINK-34933,2025-179U,2026-06-16T20:02:43.853856,15.05661481,.0002113,97.3497,209.6718,95.8789,264.2679,0,U,65253,999,4673,.4095E-3,.5858E-4,0
STARLINK-34979,2025-179V,2026-06-16T20:10:42.907296,15.05651831,.0001145,97.3491,209.6632,132.7352,227.3972,0,U,65254,999,4673,.43093E-3,.6166E-4,0
STARLINK-34987,2025-179W,2026-06-16T19:54:45.299808,15.05662595,.0001778,97.3514,209.6798,95.2474,264.8956,0,U,65255,999,4672,.2881E-3,.4103E-4,0
STARLINK-34971,2025-179X,2026-06-16T16:07:28.396416,15.05658540,.0002014,97.3494,209.5871,74.4637,285.6812,0,U,65256,999,4644,.77512E-4,.1062E-4,0
