STARLINK-34833          
1 65218U 25176W   26166.97115815  .00059881  00000+0  17656-2 0  9998
2 65218  53.1587  55.0957 0001305  73.2307 286.8839 15.34466816 48184
STARLINK-34960          
1 65219U 25176X   26167.38093003  .00020633  00000+0  62013-3 0  9990
2 65219  53.1582  53.3880 0000918  80.8868 279.2238 15.34398271 48246
STARLINK-34603          
1 65220U 25176Y   26167.85151890  .00030368  00000+0  90639-3 0  9994
2 65220  53.1592  50.6420 0001458  82.5113 277.6055 15.34396489 48328
STARLINK-34974          
1 65221U 25176Z   26167.86203958  .00028843  00000+0  86152-3 0  9999
2 65221  53.1605  50.7015 0001430  90.3492 269.7675 15.34399527 48328
STARLINK-34999          
1 65222U 25176AA  26167.37882685  .00019884  00000+0  59798-3 0  9997
2 65222  53.1582  53.3768 0001179  84.5902 275.5235 15.34404119 48240
STARLINK-34996          
1 65223U 25176AB  26167.37672020  .00020418  00000+0  61381-3 0  9994
2 65223  53.1587  53.3606 0001203  91.1612 268.9529 15.34399413 48249
STARLINK-34975          
1 65224U 25176AC  26166.96487705  .00028730  00000+0  85916-3 0  9998
2 65224  53.1605  55.0594 0001281  29.8823 330.2253 15.34363679 48189
STARLINK-34257          
1 65225U 25176AD  26166.96904781  .00024294  00000+0  72767-3 0  9998
2 65225  53.1596  55.0803 0001381  78.1971 281.9186 15.34406794 48121
STARLINK-34842          
1 65235U 25179A   26167.65248104  .00003444  00000+0  24251-3 0  9998
2 65235  97.3507 209.6135 0002618  95.8518 264.3008 15.05651915 46778
STARLINK-34938          
1 65236U 25179B   26167.68846940  .00002423  00000+0  17180-3 0  9993
2 65236  97.3499 209.5639 0001496 108.9610 251.1780 15.05653122 46761
STARLINK-34958          
1 65237U 25179C   26167.83800147  .00004259  00000+0  29888-3 0  9997
2 65237  97.3504 209.6681 0002200 102.3009 257.8465 15.05659269 46885
STARLINK-34818          
1 65238U 25179D   26167.86846065  .00005651  00000+0  39522-3 0  9993
2 65238  97.3500 209.7814 0001675 131.3306 228.8066 15.05661053 46472
STARLINK-34964          
1 65239U 25179E   26167.84632150  .00006223  00000+0  43477-3 0  9990
2 65239  97.3501 209.6556 0002320 114.3996 245.7474 15.05662303 46739
STARLINK-34953          
1 65240U 25179F   26167.69401900  .00002272  00000+0  16129-3 0  9996
2 65240  97.3503 209.5568 0002168 130.4579 229.6837 15.05662607 46877
STARLINK-34969          
1 65241U 25179G   26167.68016480  .00004671  00000+0  32742-3 0  9995
2 65241  97.3513 209.5754 0001370 103.7184 256.4196 15.05656453 46716
STARLINK-34963          
1 65242U 25179H   26167.86017750 -.00034008  00000+0 -23681-2 0  9997
2 65242  97.3517 209.7958 0001616  72.0040 288.1364 15.05590605 46895
STARLINK-34982          
1 65243U 25179J   26167.83246532  .00006177  00000+0  43170-3 0  9997
2 65243  97.3491 209.6759 0003116 119.6954 240.4584 15.05650082 46895
STARLINK-34990          
1 65244U 25179K   26167.67462801  .00005158  00000+0  36113-3 0  9996
2 65244  97.3502 209.5833 0001521 102.6605 257.4792 15.05659625 46772
STARLINK-34977          
1 65245U 25179L   26167.69123954  .00003299  00000+0  23247-3 0  9990
2 65245  97.3500 209.5611 0002064  87.4864 272.6600 15.05659809 46686
STARLINK-34959          
1 65246U 25179M   26167.84906008 -.00000436  00000+0 -26243-4 0  9999
2 65246  97.3482 209.6635 0001649 105.4349 254.7061 15.05651812 46745
STARLINK-34923          
1 65247U 25179N   26167.71061558  .00004467  00000+0  31330-3 0  9996
2 65247  97.3492 209.5320 0001763 106.5160 253.6261 15.05656725 46767
STARLINK-34962          
1 65248U 25179P   26167.68295280  .00003461  00000+0  24366-3 0  9998
2 65248  97.3504 209.5719 0001501 140.8145 219.3191 15.05657134 46720
STARLINK-34925          
1 65249U 25179Q   26167.86292723  .00004965  00000+0  34774-3 0  9992
2 65249  97.3505 209.7906 0001520  90.7913 269.3488 15.05662581 46747
STARLINK-34973          
1 65250U 25179R   26167.85462227  .00002381  00000+0  16892-3 0  9992
2 65250  97.3514 209.8029 0002020  91.9897 268.1562 15.05659211 46731
STARLINK-34989          
1 65251U 25179S   26167.85738883  .00003418  00000+0  24073-3 0  9999
2 65251  97.3521 209.7995 0001008 115.1930 244.9402 15.05656470 46912
STARLINK-34961          
1 65252U 25179T   26167.67739436  .00002255  00000+0  16019-3 0  9994
2 65252  97.3514 209.5796 0001680 119.5492 240.5903 15.05656555 46720
STARLINK-34933          
1 65253U 25179U   26167.83522979  .00005858  00000+0  40950-3 0  9998
2 65253  97.3497 209.6718 0002113  95.8789 264.2679 15.05661481 46731
STARLINK-34979          
1 65254U 25179V   26167.84077439  .00006166  00000+0  43093-3 0  9990
2 65254  97.3491 209.6632 0001145 132.7352 227.3972 15.05651831 46736
STARLINK-34987          
1 65255U 25179W   26167.82969097  .00004103  00000+0  28810-3 0  9998
2 65255  97.3514 209.6798 0001778  95.2474 264.8956 15.05662595 46722
STARLINK-34971          
1 65256U 25179X   26167.67185644  .00001062  00000+0  77512-4 0  9995
2 65256  97.3494 209.5871 0002014  74.4637 285.6812 15.05658540 46441
